NORAD_CAT_ID,OBJECT_NAME,OBJECT_TYPE,EPOCH,MEAN_MOTION,ECCENTRICITY,INCLINATION,RA_OF_ASC_NODE,ARG_OF_PERICENTER,MEAN_ANOMALY,BSTAR,MEAN_MOTION_DOT,MEAN_MOTION_DDOT,TLE_LINE0,TLE_LINE1,TLE_LINE2,SEMIMAJOR_AXIS,PERIOD,APOGEE,PERIGEE,DECAYED
55430.0,STARLINK-5642,PAYLOAD,2023-09-09 16:50:28,14.98326952,0.0003429,69.9998,243.8222,268.8218,91.2548,2.0848e-05,1.56e-06,0.0,0 STARLINK-5642,1 55430U 23014AR  23252.70171345  .00000156  00000-0  20848-4 0  9997,2 55430  69.9998 243.8222 0003429 268.8218  91.2548 14.98326952 33526,6950.202,96.107,574.451,569.684,0.0
55430.0,STARLINK-5642,PAYLOAD,2023-09-10 02:27:15,14.98339237,0.0003273,69.9991,242.8126,249.4599,110.6209,7.4225e-05,7.93e-06,0.0,0 STARLINK-5642,1 55430U 23014AR  23253.10226301  .00000793  00000-0  74225-4 0  9990,2 55430  69.9991 242.8126 0003273 249.4599 110.6209 14.98339237 33581,6950.164,96.106,574.304,569.755,0.0
55430.0,STARLINK-5642,PAYLOAD,2023-09-10 08:51:48,14.98332325,0.0003643,69.999,242.1384,269.1024,90.9718,-1.4983e-05,-2.72e-06,0.0,0 STARLINK-5642,1 55430U 23014AR  23253.36931013 -.00000272  00000-0 -14983-4 0  9990,2 55430  69.9990 242.1384 0003643 269.1024  90.9718 14.98332325 33623,6950.186,96.107,574.583,569.519,0.0
55430.0,STARLINK-5642,PAYLOAD,2023-09-11 08:53:49,14.98330101,0.0003583,69.9989,239.6133,267.6609,92.414,3.2831e-05,2.99e-06,0.0,0 STARLINK-5642,1 55430U 23014AR  23254.37071026  .00000299  00000-0  32831-4 0  9990,2 55430  69.9989 239.6133 0003583 267.6609  92.4140 14.98330101 33771,6950.193,96.107,574.548,569.567,0.0
55430.0,STARLINK-5642,PAYLOAD,2023-09-12 08:55:49,14.98339333,0.0003006,69.9994,237.0884,259.0032,101.0789,-3.4704e-05,-5.07e-06,0.0,0 STARLINK-5642,1 55430U 23014AR  23255.37210478 -.00000507  00000-0 -34704-4 0  9992,2 55430  69.9994 237.0884 0003006 259.0032 101.0789 14.98339333 33926,6950.164,96.106,574.118,569.94,0.0
55430.0,STARLINK-5642,PAYLOAD,2023-09-13 02:33:18,14.98330346,0.0003546,69.9993,235.2367,269.2819,90.7934,-1.8096e-06,-1.15e-06,0.0,0 STARLINK-5642,1 55430U 23014AR  23256.10646852 -.00000115  00000-0 -18096-5 0  9995,2 55430  69.9993 235.2367 0003546 269.2819  90.7934 14.98330346 34030,6950.192,96.107,574.521,569.592,0.0
55430.0,STARLINK-5642,PAYLOAD,2023-09-13 08:57:50,14.98334833,0.0003555,69.9993,234.5638,269.4726,90.6025,4.3377e-05,4.25e-06,0.0,0 STARLINK-5642,1 55430U 23014AR  23256.37350395  .00000425  00000-0  43377-4 0  9999,2 55430  69.9993 234.5638 0003555 269.4726  90.6025 14.98334833 35016,6950.178,96.107,574.514,569.572,0.0
55430.0,STARLINK-5642,PAYLOAD,2023-09-13 15:22:22,14.98366387,0.0003234,70.0013,233.8908,271.0107,89.0682,-0.00070735,-8.531e-05,0.0,0 STARLINK-5642,1 55430U 23014AR  23256.64054099 -.00008531  00000-0 -70735-3 0  9996,2 55430  70.0013 233.8908 0003234 271.0107  89.0682 14.98366387 34110,6950.08,96.105,574.193,569.698,0.0
55430.0,STARLINK-5642,PAYLOAD,2023-09-13 21:46:55,14.98331073,0.0003151,70.0011,233.2177,267.3574,92.7225,-9.2548e-05,-1.197e-05,0.0,0 STARLINK-5642,1 55430U 23014AR  23256.90759100 -.00001197  00000-0 -92548-4 0  9998,2 55430  70.0011 233.2177 0003151 267.3574  92.7225 14.98331073 35090,6950.19,96.107,574.245,569.865,0.0
55430.0,STARLINK-5642,PAYLOAD,2023-09-14 02:35:20,14.98325979,0.000338,69.9999,232.7131,269.1918,90.8854,-8.6331e-05,-1.123e-05,0.0,0 STARLINK-5642,1 55430U 23014AR  23257.10787360 -.00001123  00000-0 -86331-4 0  9992,2 55430  69.9999 232.7131 0003380 269.1918  90.8854 14.98325979 34186,6950.205,96.107,574.419,569.721,0.0
55430.0,STARLINK-5642,PAYLOAD,2023-09-14 08:59:52,14.98325944,0.0003362,69.9999,232.0396,264.732,95.3455,-8.4056e-05,-1.096e-05,0.0,0 STARLINK-5642,1 55430U 23014AR  23257.37491392 -.00001096  00000-0 -84056-4 0  9999,2 55430  69.9999 232.0396 0003362 264.7320  95.3455 14.98325944 35168,6950.205,96.107,574.407,569.734,0.0
55430.0,STARLINK-5642,PAYLOAD,2023-09-14 15:24:25,14.98316221,0.0002778,70.0002,231.366,267.5665,92.5176,0.00012522,1.401e-05,0.0,0 STARLINK-5642,1 55430U 23014AR  23257.64195797  .00001401  00000-0  12522-3 0  9995,2 55430  70.0002 231.3660 0002778 267.5665  92.5176 14.98316221 35207,6950.236,96.108,574.031,570.17,0.0
55430.0,STARLINK-5642,PAYLOAD,2023-09-15 02:37:20,14.9833057,0.0003437,69.9996,230.1881,265.7728,94.3038,6.5926e-06,-1.4e-07,0.0,0 STARLINK-5642,1 55430U 23014AR  23258.10926912 -.00000014  00000-0  65926-5 0  9996,2 55430  69.9996 230.1881 0003437 265.7728  94.3038 14.98330570 34334,6950.191,96.107,574.445,569.667,0.0
55430.0,STARLINK-5642,PAYLOAD,2023-09-15 07:25:44,14.98331692,0.0003483,69.9995,229.6824,267.7829,92.2931,3.1001e-05,2.77e-06,0.0,0 STARLINK-5642,1 55430U 23014AR  23258.30954774  .00000277  00000-0  31001-4 0  9991,2 55430  69.9995 229.6824 0003483 267.7829  92.2931 14.98331692 35301,6950.188,96.107,574.473,569.632,0.0
55430.0,STARLINK-5642,PAYLOAD,2023-09-16 02:39:21,14.98329501,0.0003452,69.9995,227.6627,263.958,96.1185,0.00012478,1.396e-05,0.0,0 STARLINK-5642,1 55430U 23014AR  23259.11066656  .00001396  00000-0  12478-3 0  9993,2 55430  69.9995 227.6627 0003452 263.9580  96.1185 14.98329501 34486,6950.194,96.107,574.459,569.66,0.0
55430.0,STARLINK-5642,PAYLOAD,2023-09-16 07:27:45,14.98329259,0.0003445,69.9997,227.1574,267.1082,92.9682,6.2755e-05,6.56e-06,0.0,0 STARLINK-5642,1 55430U 23014AR  23259.31094883  .00000656  00000-0  62755-4 0  9990,2 55430  69.9997 227.1574 0003445 267.1082  92.9682 14.98329259 35453,6950.195,96.107,574.455,569.666,0.0
55430.0,STARLINK-5642,PAYLOAD,2023-09-17 02:41:23,14.98327363,0.0003493,69.9998,225.1371,268.566,91.5099,-3.9721e-06,-1.4e-06,0.0,0 STARLINK-5642,1 55430U 23014AR  23260.11207225 -.00000140  00000-0 -39721-5 0  9994,2 55430  69.9998 225.1371 0003493 268.5660  91.5099 14.98327363 34637,6950.201,96.107,574.494,569.638,0.0
55430.0,STARLINK-5642,PAYLOAD,2023-09-17 07:29:47,14.98327418,0.0003335,70.0005,224.6335,262.1924,97.8857,3.2731e-05,2.98e-06,0.0,0 STARLINK-5642,1 55430U 23014AR  23260.31235100  .00000298  00000-0  32731-4 0  9994,2 55430  70.0005 224.6335 0003335 262.1924  97.8857 14.98327418 35601,6950.201,96.107,574.384,569.748,0.0
55430.0,STARLINK-5642,PAYLOAD,2023-09-18 02:43:23,14.98333554,0.0003429,69.9998,222.6129,268.4026,91.674,2.069e-06,-6.8e-07,0.0,0 STARLINK-5642,1 55430U 23014AR  23261.11346689 -.00000068  00000-0  20690-5 0  9996,2 55430  69.9998 222.6129 0003429 268.4026  91.6740 14.98333554 34783,6950.182,96.107,574.43,569.664,0.0
55430.0,STARLINK-5642,PAYLOAD,2023-09-18 07:31:47,14.98338796,0.0003352,70.0,222.1079,266.5597,93.5178,4.4525e-05,4.38e-06,0.0,0 STARLINK-5642,1 55430U 23014AR  23261.31374186  .00000438  00000-0  44525-4 0  9993,2 55430  70.0000 222.1079 0003352 266.5597  93.5178 14.98338796 35753,6950.166,96.106,574.36,569.701,0.0
55430.0,STARLINK-5642,PAYLOAD,2023-09-19 01:09:16,14.98329926,0.0003354,70.0001,220.2564,268.9711,91.1063,4.1652e-05,4.04e-06,0.0,0 STARLINK-5642,1 55430U 23014AR  23262.04810594  .00000404  00000-0  41652-4 0  9993,2 55430  70.0001 220.2564 0003354 268.9711  91.1063 14.98329926 34928,6950.193,96.107,574.389,569.727,0.0
55430.0,STARLINK-5642,PAYLOAD,2023-09-20 02:47:25,14.98324841,0.0003028,70.0015,217.5666,265.4987,94.5826,-3.8549e-05,-5.53e-06,0.0,0 STARLINK-5642,1 55430U 23014AR  23263.11626994 -.00000553  00000-0 -38549-4 0  9999,2 55430  70.0015 217.5666 0003028 265.4987  94.5826 14.98324841 35083,6950.209,96.107,574.178,569.969,0.0
55430.0,STARLINK-5642,PAYLOAD,2023-09-20 14:00:22,14.98327512,0.0003018,70.001,216.3862,263.2306,96.851,-7.7897e-05,-1.022e-05,0.0,0 STARLINK-5642,1 55430U 23014AR  23263.58358993 -.00001022  00000-0 -77897-4 0  9992,2 55430  70.0010 216.3862 0003018 263.2306  96.8510 14.98327512 36098,6950.201,96.107,574.163,569.968,0.0
55430.0,STARLINK-5642,PAYLOAD,2023-09-20 22:01:02,14.98326112,0.0002899,70.0008,215.5444,258.0806,102.0028,-5.8613e-05,-7.92e-06,0.0,0 STARLINK-5642,1 55430U 23014AR  23263.91739041 -.00000792  00000-0 -58613-4 0  9994,2 55430  70.0008 215.5444 0002899 258.0806 102.0028 14.98326112 36140,6950.205,96.107,574.085,570.055,0.0
55430.0,STARLINK-5642,PAYLOAD,2023-09-21 06:01:42,14.98328222,0.0002971,70.0005,214.703,259.1872,100.8953,-4.4754e-05,-6.27e-06,0.0,0 STARLINK-5642,1 55430U 23014AR  23264.25118933 -.00000627  00000-0 -44754-4 0  9991,2 55430  70.0005 214.7030 0002971 259.1872 100.8953 14.98328222 35253,6950.198,96.107,574.128,569.998,0.0
55430.0,STARLINK-5642,PAYLOAD,2023-09-21 22:03:03,14.98326436,0.0002696,70.0021,213.0207,250.3359,109.7509,8.0985e-05,8.73e-06,0.0,0 STARLINK-5642,1 55430U 23014AR  23264.91878807  .00000873  00000-0  80985-4 0  9994,2 55430  70.0021 213.0207 0002696 250.3359 109.7509 14.98326436 36291,6950.204,96.107,573.943,570.195,0.0
55430.0,STARLINK-5642,PAYLOAD,2023-09-22 06:03:43,14.98330405,0.0002909,70.0009,212.1772,263.0759,97.0069,0.00011215,1.245e-05,0.0,0 STARLINK-5642,1 55430U 23014AR  23265.25258543  .00001245  00000-0  11215-3 0  9994,2 55430  70.0009 212.1772 0002909 263.0759  97.0069 14.98330405 35409,6950.192,96.107,574.078,570.035,0.0
55430.0,STARLINK-5642,PAYLOAD,2023-09-22 22:05:04,14.98327942,0.0003002,70.0012,210.494,264.2236,95.8581,8.1328e-05,8.77e-06,0.0,0 STARLINK-5642,1 55430U 23014AR  23265.92018746  .00000877  00000-0  81328-4 0  9990,2 55430  70.0012 210.4940 0003002 264.2236  95.8581 14.98327942 36441,6950.199,96.107,574.151,569.978,0.0
55430.0,STARLINK-5642,PAYLOAD,2023-09-23 06:05:44,14.9833271,0.0002915,70.0011,209.6531,263.6092,96.4735,0.00011028,1.223e-05,0.0,0 STARLINK-5642,1 55430U 23014AR  23266.25398383  .00001223  00000-0  11028-3 0  9990,2 55430  70.0011 209.6531 0002915 263.6092  96.4735 14.98332710 35559,6950.185,96.107,574.075,570.024,0.0
55430.0,STARLINK-5642,PAYLOAD,2023-09-24 02:55:29,14.98330243,0.0002877,70.001,207.4646,265.9481,94.1349,-4.5979e-05,-6.42e-06,0.0,0 STARLINK-5642,1 55430U 23014AR  23267.12186914 -.00000642  00000-0 -45979-4 0  9991,2 55430  70.0010 207.4646 0002877 265.9481  94.1349 14.98330243 35684,6950.192,96.107,574.057,570.058,0.0
